[{"OBJECT_NAME":"KORSAT-3","OBJECT_ID":"2025-081A","EPOCH":"2026-03-09T21:24:50.510592","MEAN_MOTION":14.99637968,"ECCENTRICITY":0.00099231,"INCLINATION":45.4106,"RA_OF_ASC_NODE":130.6437,"ARG_OF_PERICENTER":32.4345,"MEAN_ANOMALY":327.7142,"EPHEMERIS_TYPE":0,"CLASSIFICATION_TYPE":"U","NORAD_CAT_ID":63630,"ELEMENT_SET_NO":999,"REV_AT_EPOCH":4828,"BSTAR":0.00043193523,"MEAN_MOTION_DOT":5.176e-5,"MEAN_MOTION_DDOT":0},{"OBJECT_NAME":"STARLINK-35886","OBJECT_ID":"2025-280T","EPOCH":"2026-03-09T22:09:25.068384","MEAN_MOTION":14.98329417,"ECCENTRICITY":0.00026501,"INCLINATION":70.0028,"RA_OF_ASC_NODE":333.7521,"ARG_OF_PERICENTER":249.5828,"MEAN_ANOMALY":110.5047,"EPHEMERIS_TYPE":0,"CLASSIFICATION_TYPE":"U","NORAD_CAT_ID":66838,"ELEMENT_SET_NO":999,"REV_AT_EPOCH":1611,"BSTAR":0.00028740096,"MEAN_MOTION_DOT":3.338e-5,"MEAN_MOTION_DDOT":0}]
